KUIPER-00252            
1 67157U 25301AA  25359.16668980  .00051957  00000+0  15409-2 0  9992
2 67157  51.8650  65.2819 0010266 145.7608 340.3634 15.34269876  2152
KUIPER-00261            
1 67158U 25301AB  25359.16668980  .00052342  00000+0  15017-2 0  9997
2 67158  51.8691  65.2030 0005765 125.7105  38.7629 15.35343965  1740
KUIPER-00265            
1 67159U 25301AC  25359.16668980  .00056091  00000+0  15583-2 0  9991
2 67159  51.8734  65.1347 0001749  96.6741  98.7731 15.36332172  2301
